[{"OBJECT_NAME":"BEIDOU-2 G7 (C03)","OBJECT_ID":"2016-037A","EPOCH":"2022-08-19T12:34:32.843136","MEAN_MOTION":1.00272986,"ECCENTRICITY":0.0008027,"INCLINATION":1.5104,"RA_OF_ASC_NODE":67.1978,"ARG_OF_PERICENTER":358.992,"MEAN_ANOMALY":200.7865,"EPHEMERIS_TYPE":0,"CLASSIFICATION_TYPE":"U","NORAD_CAT_ID":41586,"ELEMENT_SET_NO":999,"REV_AT_EPOCH":2277,"BSTAR":0,"MEAN_MOTION_DOT":-3.6e-6,"MEAN_MOTION_DDOT":0},{"OBJECT_NAME":"BEIDOU-3 M1 (C19)","OBJECT_ID":"2017-069A","EPOCH":"2022-08-19T06:04:33.320352","MEAN_MOTION":1.86231749,"ECCENTRICITY":0.0009449,"INCLINATION":55.5875,"RA_OF_ASC_NODE":109.5805,"ARG_OF_PERICENTER":298.1473,"MEAN_ANOMALY":293.4959,"EPHEMERIS_TYPE":0,"CLASSIFICATION_TYPE":"U","NORAD_CAT_ID":43001,"ELEMENT_SET_NO":999,"REV_AT_EPOCH":3256,"BSTAR":0,"MEAN_MOTION_DOT":-5.8e-7,"MEAN_MOTION_DDOT":0},{"OBJECT_NAME":"BEIDOU-3 M2 (C20)","OBJECT_ID":"2017-069B","EPOCH":"2022-08-18T13:24:08.483328","MEAN_MOTION":1.86231374,"ECCENTRICITY":0.0008121,"INCLINATION":55.5868,"RA_OF_ASC_NODE":109.6398,"ARG_OF_PERICENTER":322.721,"MEAN_ANOMALY":206.0748,"EPHEMERIS_TYPE":0,"CLASSIFICATION_TYPE":"U","NORAD_CAT_ID":43002,"ELEMENT_SET_NO":999,"REV_AT_EPOCH":3254,"BSTAR":0,"MEAN_MOTION_DOT":-5.5e-7,"MEAN_MOTION_DDOT":0},{"OBJECT_NAME":"BEIDOU-3 M3 (C27)","OBJECT_ID":"2018-003A","EPOCH":"2022-08-18T14:44:16.579392","MEAN_MOTION":1.86232528,"ECCENTRICITY":0.0004877,"INCLINATION":55.296,"RA_OF_ASC_NODE":350.5465,"ARG_OF_PERICENTER":70.9734,"MEAN_ANOMALY":301.3487,"EPHEMERIS_TYPE":0,"CLASSIFICATION_TYPE":"U","NORAD_CAT_ID":43107,"ELEMENT_SET_NO":999,"REV_AT_EPOCH":3131,"BSTAR":0,"MEAN_MOTION_DOT":-1.2e-6,"MEAN_MOTION_DDOT":0},{"OBJECT_NAME":"BEIDOU-3 M4 (C28)","OBJECT_ID":"2018-003B","EPOCH":"2022-08-19T14:18:27.463680","MEAN_MOTION":1.86230775,"ECCENTRICITY":0.000275,"INCLINATION":55.2887,"RA_OF_ASC_NODE":350.5016,"ARG_OF_PERICENTER":228.2276,"MEAN_ANOMALY":126.0551,"EPHEMERIS_TYPE":0,"CLASSIFICATION_TYPE":"U","NORAD_CAT_ID":43108,"ELEMENT_SET_NO":999,"REV_AT_EPOCH":3132,"BSTAR":0,"MEAN_MOTION_DOT":-1.21e-6,"MEAN_MOTION_DDOT":0},{"OBJECT_NAME":"BEIDOU-3 M5 (C21)","OBJECT_ID":"2018-018A","EPOCH":"2022-08-18T23:24:45.454176","MEAN_MOTION":1.86231673,"ECCENTRICITY":0.0005882,"INCLINATION":55.5456,"RA_OF_ASC_NODE":109.7012,"ARG_OF_PERICENTER":350.9472,"MEAN_ANOMALY":9.1087,"EPHEMERIS_TYPE":0,"CLASSIFICATION_TYPE":"U","NORAD_CAT_ID":43207,"ELEMENT_SET_NO":999,"REV_AT_EPOCH":3070,"BSTAR":0,"MEAN_MOTION_DOT":-5.7e-7,"MEAN_MOTION_DDOT":0},{"OBJECT_NAME":"BEIDOU-3 M6 (C22)","OBJECT_ID":"2018-018B","EPOCH":"2022-08-19T01:00:46.225152","MEAN_MOTION":1.86231562,"ECCENTRICITY":0.0007618,"INCLINATION":55.546,"RA_OF_ASC_NODE":109.7046,"ARG_OF_PERICENTER":312.2088,"MEAN_ANOMALY":47.7951,"EPHEMERIS_TYPE":0,"CLASSIFICATION_TYPE":"U","NORAD_CAT_ID":43208,"ELEMENT_SET_NO":999,"REV_AT_EPOCH":3070,"BSTAR":0,"MEAN_MOTION_DOT":-5.7e-7,"MEAN_MOTION_DDOT":0},{"OBJECT_NAME":"BEIDOU-3 M7 (C29)","OBJECT_ID":"2018-029A","EPOCH":"2022-08-19T06:44:37.754592","MEAN_MOTION":1.86232712,"ECCENTRICITY":0.0001,"INCLINATION":55.2063,"RA_OF_ASC_NODE":348.288,"ARG_OF_PERICENTER":130.3117,"MEAN_ANOMALY":239.6155,"EPHEMERIS_TYPE":0,"CLASSIFICATION_TYPE":"U","NORAD_CAT_ID":43245,"ELEMENT_SET_NO":999,"REV_AT_EPOCH":2986,"BSTAR":0,"MEAN_MOTION_DOT":-1.21e-6,"MEAN_MOTION_DDOT":0},{"OBJECT_NAME":"BEIDOU-3 M8 (C30)","OBJECT_ID":"2018-029B","EPOCH":"2022-08-18T18:48:26.165088","MEAN_MOTION":1.86232947,"ECCENTRICITY":0.0003148,"INCLINATION":55.2033,"RA_OF_ASC_NODE":348.3345,"ARG_OF_PERICENTER":12.4824,"MEAN_ANOMALY":70.5731,"EPHEMERIS_TYPE":0,"CLASSIFICATION_TYPE":"U","NORAD_CAT_ID":43246,"ELEMENT_SET_NO":999,"REV_AT_EPOCH":2984,"BSTAR":0.0001,"MEAN_MOTION_DOT":-1.21e-6,"MEAN_MOTION_DDOT":0},{"OBJECT_NAME":"BEIDOU IGSO-7 (C16)","OBJECT_ID":"2018-057A","EPOCH":"2022-08-19T14:40:06.762432","MEAN_MOTION":1.00291447,"ECCENTRICITY":0.0052721,"INCLINATION":55.0898,"RA_OF_ASC_NODE":175.1727,"ARG_OF_PERICENTER":228.9377,"MEAN_ANOMALY":256.6212,"EPHEMERIS_TYPE":0,"CLASSIFICATION_TYPE":"U","NORAD_CAT_ID":43539,"ELEMENT_SET_NO":999,"REV_AT_EPOCH":1514,"BSTAR":0,"MEAN_MOTION_DOT":-1.29e-6,"MEAN_MOTION_DDOT":0},{"OBJECT_NAME":"BEIDOU-3 M9 (C23)","OBJECT_ID":"2018-062A","EPOCH":"2022-08-19T09:28:57.580032","MEAN_MOTION":1.86231898,"ECCENTRICITY":0.0006021,"INCLINATION":54.2611,"RA_OF_ASC_NODE":229.9289,"ARG_OF_PERICENTER":271.0829,"MEAN_ANOMALY":73.1223,"EPHEMERIS_TYPE":0,"CLASSIFICATION_TYPE":"U","NORAD_CAT_ID":43581,"ELEMENT_SET_NO":999,"REV_AT_EPOCH":2759,"BSTAR":0,"MEAN_MOTION_DOT":7.3e-7,"MEAN_MOTION_DDOT":0},{"OBJECT_NAME":"BEIDOU-3 M10 (C24)","OBJECT_ID":"2018-062B","EPOCH":"2022-08-19T12:50:06.048672","MEAN_MOTION":1.86232254,"ECCENTRICITY":0.0004816,"INCLINATION":54.2607,"RA_OF_ASC_NODE":229.9142,"ARG_OF_PERICENTER":335.9099,"MEAN_ANOMALY":193.7858,"EPHEMERIS_TYPE":0,"CLASSIFICATION_TYPE":"U","NORAD_CAT_ID":43582,"ELEMENT_SET_NO":999,"REV_AT_EPOCH":2760,"BSTAR":0,"MEAN_MOTION_DOT":7.4e-7,"MEAN_MOTION_DDOT":0},{"OBJECT_NAME":"BEIDOU-3 M11 (C25)","OBJECT_ID":"2018-067A","EPOCH":"2022-08-19T11:36:47.150784","MEAN_MOTION":1.86231617,"ECCENTRICITY":0.0006644,"INCLINATION":54.3436,"RA_OF_ASC_NODE":228.5361,"ARG_OF_PERICENTER":0.1491,"MEAN_ANOMALY":176.7041,"EPHEMERIS_TYPE":0,"CLASSIFICATION_TYPE":"U","NORAD_CAT_ID":43602,"ELEMENT_SET_NO":999,"REV_AT_EPOCH":2709,"BSTAR":0,"MEAN_MOTION_DOT":7.4e-7,"MEAN_MOTION_DDOT":0},{"OBJECT_NAME":"BEIDOU-3 M12 (C26)","OBJECT_ID":"2018-067B","EPOCH":"2022-08-19T10:25:34.276800","MEAN_MOTION":1.86231561,"ECCENTRICITY":0.0004032,"INCLINATION":54.3406,"RA_OF_ASC_NODE":228.5043,"ARG_OF_PERICENTER":340.5171,"MEAN_ANOMALY":73.5414,"EPHEMERIS_TYPE":0,"CLASSIFICATION_TYPE":"U","NORAD_CAT_ID":43603,"ELEMENT_SET_NO":999,"REV_AT_EPOCH":2711,"BSTAR":0,"MEAN_MOTION_DOT":7.4e-7,"MEAN_MOTION_DDOT":0},{"OBJECT_NAME":"BEIDOU-3 M13 (C32)","OBJECT_ID":"2018-072A","EPOCH":"2022-08-19T02:41:33.319680","MEAN_MOTION":1.86231872,"ECCENTRICITY":0.0006115,"INCLINATION":55.5137,"RA_OF_ASC_NODE":109.2507,"ARG_OF_PERICENTER":297.2733,"MEAN_ANOMALY":289.8646,"EPHEMERIS_TYPE":0,"CLASSIFICATION_TYPE":"U","NORAD_CAT_ID":43622,"ELEMENT_SET_NO":999,"REV_AT_EPOCH":2661,"BSTAR":0,"MEAN_MOTION_DOT":-5.7e-7,"MEAN_MOTION_DDOT":0},{"OBJECT_NAME":"BEIDOU-3 M14 (C33)","OBJECT_ID":"2018-072B","EPOCH":"2022-08-19T08:42:16.106688","MEAN_MOTION":1.86231904,"ECCENTRICITY":0.0004349,"INCLINATION":55.5159,"RA_OF_ASC_NODE":109.2336,"ARG_OF_PERICENTER":328.0808,"MEAN_ANOMALY":157.2401,"EPHEMERIS_TYPE":0,"CLASSIFICATION_TYPE":"U","NORAD_CAT_ID":43623,"ELEMENT_SET_NO":999,"REV_AT_EPOCH":2662,"BSTAR":0,"MEAN_MOTION_DOT":-5.8e-7,"MEAN_MOTION_DDOT":0},{"OBJECT_NAME":"BEIDOU-3 M15 (C34)","OBJECT_ID":"2018-078A","EPOCH":"2022-08-19T08:42:05.192640","MEAN_MOTION":1.86232679,"ECCENTRICITY":0.0005527,"INCLINATION":55.1013,"RA_OF_ASC_NODE":348.4394,"ARG_OF_PERICENTER":13.3854,"MEAN_ANOMALY":7.4533,"EPHEMERIS_TYPE":0,"CLASSIFICATION_TYPE":"U","NORAD_CAT_ID":43647,"ELEMENT_SET_NO":999,"REV_AT_EPOCH":2613,"BSTAR":0.0001,"MEAN_MOTION_DOT":-1.21e-6,"MEAN_MOTION_DDOT":0}]